<?xml version="1.0" encoding="UTF-8"?>
<gpx version="1.1" creator="dot-racing-indoor/scripts/make-demo-loop.mjs" xmlns="http://www.topografix.com/GPX/1/1">
  <metadata>
    <name>Boucle de démonstration</name>
    <desc>Tracé SYNTHÉTIQUE : un cercle de 800 m de rayon, altitude inventée. Ne suit aucune route. À remplacer par un vrai GPX.</desc>
  </metadata>
  <trk>
    <name>Boucle de démonstration</name>
    <trkseg>
      <trkpt lat="44.2476946" lon="5.0747000"><ele>290.0</ele></trkpt>
      <trkpt lat="44.2476935" lon="5.0748753"><ele>291.2</ele></trkpt>
      <trkpt lat="44.2476902" lon="5.0750505"><ele>292.4</ele></trkpt>
      <trkpt lat="44.2476847" lon="5.0752256"><ele>293.7</ele></trkpt>
      <trkpt lat="44.2476770" lon="5.0754005"><ele>294.9</ele></trkpt>
      <trkpt lat="44.2476672" lon="5.0755753"><ele>296.1</ele></trkpt>
      <trkpt lat="44.2476552" lon="5.0757497"><ele>297.3</ele></trkpt>
      <trkpt lat="44.2476409" lon="5.0759239"><ele>298.5</ele></trkpt>
      <trkpt lat="44.2476245" lon="5.0760976"><ele>299.6</ele></trkpt>
      <trkpt lat="44.2476060" lon="5.0762710"><ele>300.8</ele></trkpt>
      <trkpt lat="44.2475853" lon="5.0764438"><ele>302.0</ele></trkpt>
      <trkpt lat="44.2475624" lon="5.0766162"><ele>303.1</ele></trkpt>
      <trkpt lat="44.2475373" lon="5.0767879"><ele>304.2</ele></trkpt>
      <trkpt lat="44.2475102" lon="5.0769591"><ele>305.3</ele></trkpt>
      <trkpt lat="44.2474809" lon="5.0771295"><ele>306.4</ele></trkpt>
      <trkpt lat="44.2474494" lon="5.0772992"><ele>307.5</ele></trkpt>
      <trkpt lat="44.2474159" lon="5.0774681"><ele>308.5</ele></trkpt>
      <trkpt lat="44.2473802" lon="5.0776361"><ele>309.6</ele></trkpt>
      <trkpt lat="44.2473424" lon="5.0778033"><ele>310.6</ele></trkpt>
      <trkpt lat="44.2473026" lon="5.0779695"><ele>311.5</ele></trkpt>
      <trkpt lat="44.2472607" lon="5.0781347"><ele>312.5</ele></trkpt>
      <trkpt lat="44.2472167" lon="5.0782989"><ele>313.4</ele></trkpt>
      <trkpt lat="44.2471707" lon="5.0784620"><ele>314.3</ele></trkpt>
      <trkpt lat="44.2471226" lon="5.0786239"><ele>315.2</ele></trkpt>
      <trkpt lat="44.2470726" lon="5.0787846"><ele>316.0</ele></trkpt>
      <trkpt lat="44.2470205" lon="5.0789441"><ele>316.8</ele></trkpt>
      <trkpt lat="44.2469664" lon="5.0791023"><ele>317.6</ele></trkpt>
      <trkpt lat="44.2469104" lon="5.0792592"><ele>318.3</ele></trkpt>
      <trkpt lat="44.2468524" lon="5.0794146"><ele>319.0</ele></trkpt>
      <trkpt lat="44.2467925" lon="5.0795687"><ele>319.7</ele></trkpt>
      <trkpt lat="44.2467307" lon="5.0797212"><ele>320.3</ele></trkpt>
      <trkpt lat="44.2466669" lon="5.0798722"><ele>320.9</ele></trkpt>
      <trkpt lat="44.2466013" lon="5.0800217"><ele>321.5</ele></trkpt>
      <trkpt lat="44.2465339" lon="5.0801695"><ele>322.0</ele></trkpt>
      <trkpt lat="44.2464646" lon="5.0803156"><ele>322.5</ele></trkpt>
      <trkpt lat="44.2463934" lon="5.0804601"><ele>322.9</ele></trkpt>
      <trkpt lat="44.2463205" lon="5.0806028"><ele>323.3</ele></trkpt>
      <trkpt lat="44.2462458" lon="5.0807437"><ele>323.6</ele></trkpt>
      <trkpt lat="44.2461694" lon="5.0808827"><ele>324.0</ele></trkpt>
      <trkpt lat="44.2460912" lon="5.0810199"><ele>324.2</ele></trkpt>
      <trkpt lat="44.2460114" lon="5.0811551"><ele>324.5</ele></trkpt>
      <trkpt lat="44.2459298" lon="5.0812884"><ele>324.7</ele></trkpt>
      <trkpt lat="44.2458466" lon="5.0814197"><ele>324.8</ele></trkpt>
      <trkpt lat="44.2457618" lon="5.0815489"><ele>324.9</ele></trkpt>
      <trkpt lat="44.2456753" lon="5.0816760"><ele>325.0</ele></trkpt>
      <trkpt lat="44.2455873" lon="5.0818011"><ele>325.0</ele></trkpt>
      <trkpt lat="44.2454978" lon="5.0819239"><ele>325.0</ele></trkpt>
      <trkpt lat="44.2454067" lon="5.0820446"><ele>324.9</ele></trkpt>
      <trkpt lat="44.2453141" lon="5.0821630"><ele>324.8</ele></trkpt>
      <trkpt lat="44.2452201" lon="5.0822791"><ele>324.7</ele></trkpt>
      <trkpt lat="44.2451246" lon="5.0823929"><ele>324.5</ele></trkpt>
      <trkpt lat="44.2450277" lon="5.0825044"><ele>324.2</ele></trkpt>
      <trkpt lat="44.2449294" lon="5.0826135"><ele>324.0</ele></trkpt>
      <trkpt lat="44.2448298" lon="5.0827202"><ele>323.6</ele></trkpt>
      <trkpt lat="44.2447289" lon="5.0828245"><ele>323.3</ele></trkpt>
      <trkpt lat="44.2446266" lon="5.0829263"><ele>322.9</ele></trkpt>
      <trkpt lat="44.2445231" lon="5.0830255"><ele>322.5</ele></trkpt>
      <trkpt lat="44.2444184" lon="5.0831223"><ele>322.0</ele></trkpt>
      <trkpt lat="44.2443125" lon="5.0832165"><ele>321.5</ele></trkpt>
      <trkpt lat="44.2442055" lon="5.0833080"><ele>320.9</ele></trkpt>
      <trkpt lat="44.2440973" lon="5.0833970"><ele>320.3</ele></trkpt>
      <trkpt lat="44.2439880" lon="5.0834833"><ele>319.7</ele></trkpt>
      <trkpt lat="44.2438776" lon="5.0835669"><ele>319.0</ele></trkpt>
      <trkpt lat="44.2437663" lon="5.0836479"><ele>318.3</ele></trkpt>
      <trkpt lat="44.2436539" lon="5.0837261"><ele>317.6</ele></trkpt>
      <trkpt lat="44.2435406" lon="5.0838015"><ele>316.8</ele></trkpt>
      <trkpt lat="44.2434263" lon="5.0838742"><ele>316.0</ele></trkpt>
      <trkpt lat="44.2433111" lon="5.0839441"><ele>315.2</ele></trkpt>
      <trkpt lat="44.2431951" lon="5.0840112"><ele>314.3</ele></trkpt>
      <trkpt lat="44.2430783" lon="5.0840754"><ele>313.4</ele></trkpt>
      <trkpt lat="44.2429607" lon="5.0841368"><ele>312.5</ele></trkpt>
      <trkpt lat="44.2428423" lon="5.0841953"><ele>311.5</ele></trkpt>
      <trkpt lat="44.2427232" lon="5.0842509"><ele>310.6</ele></trkpt>
      <trkpt lat="44.2426035" lon="5.0843036"><ele>309.6</ele></trkpt>
      <trkpt lat="44.2424831" lon="5.0843534"><ele>308.5</ele></trkpt>
      <trkpt lat="44.2423621" lon="5.0844002"><ele>307.5</ele></trkpt>
      <trkpt lat="44.2422405" lon="5.0844441"><ele>306.4</ele></trkpt>
      <trkpt lat="44.2421184" lon="5.0844850"><ele>305.3</ele></trkpt>
      <trkpt lat="44.2419958" lon="5.0845230"><ele>304.2</ele></trkpt>
      <trkpt lat="44.2418728" lon="5.0845579"><ele>303.1</ele></trkpt>
      <trkpt lat="44.2417493" lon="5.0845898"><ele>302.0</ele></trkpt>
      <trkpt lat="44.2416255" lon="5.0846188"><ele>300.8</ele></trkpt>
      <trkpt lat="44.2415013" lon="5.0846447"><ele>299.6</ele></trkpt>
      <trkpt lat="44.2413768" lon="5.0846676"><ele>298.5</ele></trkpt>
      <trkpt lat="44.2412520" lon="5.0846874"><ele>297.3</ele></trkpt>
      <trkpt lat="44.2411270" lon="5.0847042"><ele>296.1</ele></trkpt>
      <trkpt lat="44.2410019" lon="5.0847180"><ele>294.9</ele></trkpt>
      <trkpt lat="44.2408765" lon="5.0847287"><ele>293.7</ele></trkpt>
      <trkpt lat="44.2407511" lon="5.0847363"><ele>292.4</ele></trkpt>
      <trkpt lat="44.2406256" lon="5.0847409"><ele>291.2</ele></trkpt>
      <trkpt lat="44.2405000" lon="5.0847424"><ele>290.0</ele></trkpt>
      <trkpt lat="44.2403744" lon="5.0847409"><ele>288.8</ele></trkpt>
      <trkpt lat="44.2402489" lon="5.0847363"><ele>287.6</ele></trkpt>
      <trkpt lat="44.2401235" lon="5.0847287"><ele>286.3</ele></trkpt>
      <trkpt lat="44.2399981" lon="5.0847180"><ele>285.1</ele></trkpt>
      <trkpt lat="44.2398730" lon="5.0847042"><ele>283.9</ele></trkpt>
      <trkpt lat="44.2397480" lon="5.0846874"><ele>282.7</ele></trkpt>
      <trkpt lat="44.2396232" lon="5.0846676"><ele>281.5</ele></trkpt>
      <trkpt lat="44.2394987" lon="5.0846447"><ele>280.4</ele></trkpt>
      <trkpt lat="44.2393745" lon="5.0846188"><ele>279.2</ele></trkpt>
      <trkpt lat="44.2392507" lon="5.0845898"><ele>278.0</ele></trkpt>
      <trkpt lat="44.2391272" lon="5.0845579"><ele>276.9</ele></trkpt>
      <trkpt lat="44.2390042" lon="5.0845230"><ele>275.8</ele></trkpt>
      <trkpt lat="44.2388816" lon="5.0844850"><ele>274.7</ele></trkpt>
      <trkpt lat="44.2387595" lon="5.0844441"><ele>273.6</ele></trkpt>
      <trkpt lat="44.2386379" lon="5.0844002"><ele>272.5</ele></trkpt>
      <trkpt lat="44.2385169" lon="5.0843534"><ele>271.5</ele></trkpt>
      <trkpt lat="44.2383965" lon="5.0843036"><ele>270.4</ele></trkpt>
      <trkpt lat="44.2382768" lon="5.0842509"><ele>269.4</ele></trkpt>
      <trkpt lat="44.2381577" lon="5.0841953"><ele>268.5</ele></trkpt>
      <trkpt lat="44.2380393" lon="5.0841368"><ele>267.5</ele></trkpt>
      <trkpt lat="44.2379217" lon="5.0840754"><ele>266.6</ele></trkpt>
      <trkpt lat="44.2378049" lon="5.0840112"><ele>265.7</ele></trkpt>
      <trkpt lat="44.2376889" lon="5.0839441"><ele>264.8</ele></trkpt>
      <trkpt lat="44.2375737" lon="5.0838742"><ele>264.0</ele></trkpt>
      <trkpt lat="44.2374594" lon="5.0838015"><ele>263.2</ele></trkpt>
      <trkpt lat="44.2373461" lon="5.0837261"><ele>262.4</ele></trkpt>
      <trkpt lat="44.2372337" lon="5.0836479"><ele>261.7</ele></trkpt>
      <trkpt lat="44.2371224" lon="5.0835669"><ele>261.0</ele></trkpt>
      <trkpt lat="44.2370120" lon="5.0834833"><ele>260.3</ele></trkpt>
      <trkpt lat="44.2369027" lon="5.0833970"><ele>259.7</ele></trkpt>
      <trkpt lat="44.2367945" lon="5.0833080"><ele>259.1</ele></trkpt>
      <trkpt lat="44.2366875" lon="5.0832165"><ele>258.5</ele></trkpt>
      <trkpt lat="44.2365816" lon="5.0831223"><ele>258.0</ele></trkpt>
      <trkpt lat="44.2364769" lon="5.0830255"><ele>257.5</ele></trkpt>
      <trkpt lat="44.2363734" lon="5.0829263"><ele>257.1</ele></trkpt>
      <trkpt lat="44.2362711" lon="5.0828245"><ele>256.7</ele></trkpt>
      <trkpt lat="44.2361702" lon="5.0827202"><ele>256.4</ele></trkpt>
      <trkpt lat="44.2360706" lon="5.0826135"><ele>256.0</ele></trkpt>
      <trkpt lat="44.2359723" lon="5.0825044"><ele>255.8</ele></trkpt>
      <trkpt lat="44.2358754" lon="5.0823929"><ele>255.5</ele></trkpt>
      <trkpt lat="44.2357799" lon="5.0822791"><ele>255.3</ele></trkpt>
      <trkpt lat="44.2356859" lon="5.0821630"><ele>255.2</ele></trkpt>
      <trkpt lat="44.2355933" lon="5.0820446"><ele>255.1</ele></trkpt>
      <trkpt lat="44.2355022" lon="5.0819239"><ele>255.0</ele></trkpt>
      <trkpt lat="44.2354127" lon="5.0818011"><ele>255.0</ele></trkpt>
      <trkpt lat="44.2353247" lon="5.0816760"><ele>255.0</ele></trkpt>
      <trkpt lat="44.2352382" lon="5.0815489"><ele>255.1</ele></trkpt>
      <trkpt lat="44.2351534" lon="5.0814197"><ele>255.2</ele></trkpt>
      <trkpt lat="44.2350702" lon="5.0812884"><ele>255.3</ele></trkpt>
      <trkpt lat="44.2349886" lon="5.0811551"><ele>255.5</ele></trkpt>
      <trkpt lat="44.2349088" lon="5.0810199"><ele>255.8</ele></trkpt>
      <trkpt lat="44.2348306" lon="5.0808827"><ele>256.0</ele></trkpt>
      <trkpt lat="44.2347542" lon="5.0807437"><ele>256.4</ele></trkpt>
      <trkpt lat="44.2346795" lon="5.0806028"><ele>256.7</ele></trkpt>
      <trkpt lat="44.2346066" lon="5.0804601"><ele>257.1</ele></trkpt>
      <trkpt lat="44.2345354" lon="5.0803156"><ele>257.5</ele></trkpt>
      <trkpt lat="44.2344661" lon="5.0801695"><ele>258.0</ele></trkpt>
      <trkpt lat="44.2343987" lon="5.0800217"><ele>258.5</ele></trkpt>
      <trkpt lat="44.2343331" lon="5.0798722"><ele>259.1</ele></trkpt>
      <trkpt lat="44.2342693" lon="5.0797212"><ele>259.7</ele></trkpt>
      <trkpt lat="44.2342075" lon="5.0795687"><ele>260.3</ele></trkpt>
      <trkpt lat="44.2341476" lon="5.0794146"><ele>261.0</ele></trkpt>
      <trkpt lat="44.2340896" lon="5.0792592"><ele>261.7</ele></trkpt>
      <trkpt lat="44.2340336" lon="5.0791023"><ele>262.4</ele></trkpt>
      <trkpt lat="44.2339795" lon="5.0789441"><ele>263.2</ele></trkpt>
      <trkpt lat="44.2339274" lon="5.0787846"><ele>264.0</ele></trkpt>
      <trkpt lat="44.2338774" lon="5.0786239"><ele>264.8</ele></trkpt>
      <trkpt lat="44.2338293" lon="5.0784620"><ele>265.7</ele></trkpt>
      <trkpt lat="44.2337833" lon="5.0782989"><ele>266.6</ele></trkpt>
      <trkpt lat="44.2337393" lon="5.0781347"><ele>267.5</ele></trkpt>
      <trkpt lat="44.2336974" lon="5.0779695"><ele>268.5</ele></trkpt>
      <trkpt lat="44.2336576" lon="5.0778033"><ele>269.4</ele></trkpt>
      <trkpt lat="44.2336198" lon="5.0776361"><ele>270.4</ele></trkpt>
      <trkpt lat="44.2335841" lon="5.0774681"><ele>271.5</ele></trkpt>
      <trkpt lat="44.2335506" lon="5.0772992"><ele>272.5</ele></trkpt>
      <trkpt lat="44.2335191" lon="5.0771295"><ele>273.6</ele></trkpt>
      <trkpt lat="44.2334898" lon="5.0769591"><ele>274.7</ele></trkpt>
      <trkpt lat="44.2334627" lon="5.0767879"><ele>275.8</ele></trkpt>
      <trkpt lat="44.2334376" lon="5.0766162"><ele>276.9</ele></trkpt>
      <trkpt lat="44.2334147" lon="5.0764438"><ele>278.0</ele></trkpt>
      <trkpt lat="44.2333940" lon="5.0762710"><ele>279.2</ele></trkpt>
      <trkpt lat="44.2333755" lon="5.0760976"><ele>280.4</ele></trkpt>
      <trkpt lat="44.2333591" lon="5.0759239"><ele>281.5</ele></trkpt>
      <trkpt lat="44.2333448" lon="5.0757497"><ele>282.7</ele></trkpt>
      <trkpt lat="44.2333328" lon="5.0755753"><ele>283.9</ele></trkpt>
      <trkpt lat="44.2333230" lon="5.0754005"><ele>285.1</ele></trkpt>
      <trkpt lat="44.2333153" lon="5.0752256"><ele>286.3</ele></trkpt>
      <trkpt lat="44.2333098" lon="5.0750505"><ele>287.6</ele></trkpt>
      <trkpt lat="44.2333065" lon="5.0748753"><ele>288.8</ele></trkpt>
      <trkpt lat="44.2333054" lon="5.0747000"><ele>290.0</ele></trkpt>
      <trkpt lat="44.2333065" lon="5.0745247"><ele>291.2</ele></trkpt>
      <trkpt lat="44.2333098" lon="5.0743495"><ele>292.4</ele></trkpt>
      <trkpt lat="44.2333153" lon="5.0741744"><ele>293.7</ele></trkpt>
      <trkpt lat="44.2333230" lon="5.0739995"><ele>294.9</ele></trkpt>
      <trkpt lat="44.2333328" lon="5.0738247"><ele>296.1</ele></trkpt>
      <trkpt lat="44.2333448" lon="5.0736503"><ele>297.3</ele></trkpt>
      <trkpt lat="44.2333591" lon="5.0734761"><ele>298.5</ele></trkpt>
      <trkpt lat="44.2333755" lon="5.0733024"><ele>299.6</ele></trkpt>
      <trkpt lat="44.2333940" lon="5.0731290"><ele>300.8</ele></trkpt>
      <trkpt lat="44.2334147" lon="5.0729562"><ele>302.0</ele></trkpt>
      <trkpt lat="44.2334376" lon="5.0727838"><ele>303.1</ele></trkpt>
      <trkpt lat="44.2334627" lon="5.0726121"><ele>304.2</ele></trkpt>
      <trkpt lat="44.2334898" lon="5.0724409"><ele>305.3</ele></trkpt>
      <trkpt lat="44.2335191" lon="5.0722705"><ele>306.4</ele></trkpt>
      <trkpt lat="44.2335506" lon="5.0721008"><ele>307.5</ele></trkpt>
      <trkpt lat="44.2335841" lon="5.0719319"><ele>308.5</ele></trkpt>
      <trkpt lat="44.2336198" lon="5.0717639"><ele>309.6</ele></trkpt>
      <trkpt lat="44.2336576" lon="5.0715967"><ele>310.6</ele></trkpt>
      <trkpt lat="44.2336974" lon="5.0714305"><ele>311.5</ele></trkpt>
      <trkpt lat="44.2337393" lon="5.0712653"><ele>312.5</ele></trkpt>
      <trkpt lat="44.2337833" lon="5.0711011"><ele>313.4</ele></trkpt>
      <trkpt lat="44.2338293" lon="5.0709380"><ele>314.3</ele></trkpt>
      <trkpt lat="44.2338774" lon="5.0707761"><ele>315.2</ele></trkpt>
      <trkpt lat="44.2339274" lon="5.0706154"><ele>316.0</ele></trkpt>
      <trkpt lat="44.2339795" lon="5.0704559"><ele>316.8</ele></trkpt>
      <trkpt lat="44.2340336" lon="5.0702977"><ele>317.6</ele></trkpt>
      <trkpt lat="44.2340896" lon="5.0701408"><ele>318.3</ele></trkpt>
      <trkpt lat="44.2341476" lon="5.0699854"><ele>319.0</ele></trkpt>
      <trkpt lat="44.2342075" lon="5.0698313"><ele>319.7</ele></trkpt>
      <trkpt lat="44.2342693" lon="5.0696788"><ele>320.3</ele></trkpt>
      <trkpt lat="44.2343331" lon="5.0695278"><ele>320.9</ele></trkpt>
      <trkpt lat="44.2343987" lon="5.0693783"><ele>321.5</ele></trkpt>
      <trkpt lat="44.2344661" lon="5.0692305"><ele>322.0</ele></trkpt>
      <trkpt lat="44.2345354" lon="5.0690844"><ele>322.5</ele></trkpt>
      <trkpt lat="44.2346066" lon="5.0689399"><ele>322.9</ele></trkpt>
      <trkpt lat="44.2346795" lon="5.0687972"><ele>323.3</ele></trkpt>
      <trkpt lat="44.2347542" lon="5.0686563"><ele>323.6</ele></trkpt>
      <trkpt lat="44.2348306" lon="5.0685173"><ele>324.0</ele></trkpt>
      <trkpt lat="44.2349088" lon="5.0683801"><ele>324.2</ele></trkpt>
      <trkpt lat="44.2349886" lon="5.0682449"><ele>324.5</ele></trkpt>
      <trkpt lat="44.2350702" lon="5.0681116"><ele>324.7</ele></trkpt>
      <trkpt lat="44.2351534" lon="5.0679803"><ele>324.8</ele></trkpt>
      <trkpt lat="44.2352382" lon="5.0678511"><ele>324.9</ele></trkpt>
      <trkpt lat="44.2353247" lon="5.0677240"><ele>325.0</ele></trkpt>
      <trkpt lat="44.2354127" lon="5.0675989"><ele>325.0</ele></trkpt>
      <trkpt lat="44.2355022" lon="5.0674761"><ele>325.0</ele></trkpt>
      <trkpt lat="44.2355933" lon="5.0673554"><ele>324.9</ele></trkpt>
      <trkpt lat="44.2356859" lon="5.0672370"><ele>324.8</ele></trkpt>
      <trkpt lat="44.2357799" lon="5.0671209"><ele>324.7</ele></trkpt>
      <trkpt lat="44.2358754" lon="5.0670071"><ele>324.5</ele></trkpt>
      <trkpt lat="44.2359723" lon="5.0668956"><ele>324.2</ele></trkpt>
      <trkpt lat="44.2360706" lon="5.0667865"><ele>324.0</ele></trkpt>
      <trkpt lat="44.2361702" lon="5.0666798"><ele>323.6</ele></trkpt>
      <trkpt lat="44.2362711" lon="5.0665755"><ele>323.3</ele></trkpt>
      <trkpt lat="44.2363734" lon="5.0664737"><ele>322.9</ele></trkpt>
      <trkpt lat="44.2364769" lon="5.0663745"><ele>322.5</ele></trkpt>
      <trkpt lat="44.2365816" lon="5.0662777"><ele>322.0</ele></trkpt>
      <trkpt lat="44.2366875" lon="5.0661835"><ele>321.5</ele></trkpt>
      <trkpt lat="44.2367945" lon="5.0660920"><ele>320.9</ele></trkpt>
      <trkpt lat="44.2369027" lon="5.0660030"><ele>320.3</ele></trkpt>
      <trkpt lat="44.2370120" lon="5.0659167"><ele>319.7</ele></trkpt>
      <trkpt lat="44.2371224" lon="5.0658331"><ele>319.0</ele></trkpt>
      <trkpt lat="44.2372337" lon="5.0657521"><ele>318.3</ele></trkpt>
      <trkpt lat="44.2373461" lon="5.0656739"><ele>317.6</ele></trkpt>
      <trkpt lat="44.2374594" lon="5.0655985"><ele>316.8</ele></trkpt>
      <trkpt lat="44.2375737" lon="5.0655258"><ele>316.0</ele></trkpt>
      <trkpt lat="44.2376889" lon="5.0654559"><ele>315.2</ele></trkpt>
      <trkpt lat="44.2378049" lon="5.0653888"><ele>314.3</ele></trkpt>
      <trkpt lat="44.2379217" lon="5.0653246"><ele>313.4</ele></trkpt>
      <trkpt lat="44.2380393" lon="5.0652632"><ele>312.5</ele></trkpt>
      <trkpt lat="44.2381577" lon="5.0652047"><ele>311.5</ele></trkpt>
      <trkpt lat="44.2382768" lon="5.0651491"><ele>310.6</ele></trkpt>
      <trkpt lat="44.2383965" lon="5.0650964"><ele>309.6</ele></trkpt>
      <trkpt lat="44.2385169" lon="5.0650466"><ele>308.5</ele></trkpt>
      <trkpt lat="44.2386379" lon="5.0649998"><ele>307.5</ele></trkpt>
      <trkpt lat="44.2387595" lon="5.0649559"><ele>306.4</ele></trkpt>
      <trkpt lat="44.2388816" lon="5.0649150"><ele>305.3</ele></trkpt>
      <trkpt lat="44.2390042" lon="5.0648770"><ele>304.2</ele></trkpt>
      <trkpt lat="44.2391272" lon="5.0648421"><ele>303.1</ele></trkpt>
      <trkpt lat="44.2392507" lon="5.0648102"><ele>302.0</ele></trkpt>
      <trkpt lat="44.2393745" lon="5.0647812"><ele>300.8</ele></trkpt>
      <trkpt lat="44.2394987" lon="5.0647553"><ele>299.6</ele></trkpt>
      <trkpt lat="44.2396232" lon="5.0647324"><ele>298.5</ele></trkpt>
      <trkpt lat="44.2397480" lon="5.0647126"><ele>297.3</ele></trkpt>
      <trkpt lat="44.2398730" lon="5.0646958"><ele>296.1</ele></trkpt>
      <trkpt lat="44.2399981" lon="5.0646820"><ele>294.9</ele></trkpt>
      <trkpt lat="44.2401235" lon="5.0646713"><ele>293.7</ele></trkpt>
      <trkpt lat="44.2402489" lon="5.0646637"><ele>292.4</ele></trkpt>
      <trkpt lat="44.2403744" lon="5.0646591"><ele>291.2</ele></trkpt>
      <trkpt lat="44.2405000" lon="5.0646576"><ele>290.0</ele></trkpt>
      <trkpt lat="44.2406256" lon="5.0646591"><ele>288.8</ele></trkpt>
      <trkpt lat="44.2407511" lon="5.0646637"><ele>287.6</ele></trkpt>
      <trkpt lat="44.2408765" lon="5.0646713"><ele>286.3</ele></trkpt>
      <trkpt lat="44.2410019" lon="5.0646820"><ele>285.1</ele></trkpt>
      <trkpt lat="44.2411270" lon="5.0646958"><ele>283.9</ele></trkpt>
      <trkpt lat="44.2412520" lon="5.0647126"><ele>282.7</ele></trkpt>
      <trkpt lat="44.2413768" lon="5.0647324"><ele>281.5</ele></trkpt>
      <trkpt lat="44.2415013" lon="5.0647553"><ele>280.4</ele></trkpt>
      <trkpt lat="44.2416255" lon="5.0647812"><ele>279.2</ele></trkpt>
      <trkpt lat="44.2417493" lon="5.0648102"><ele>278.0</ele></trkpt>
      <trkpt lat="44.2418728" lon="5.0648421"><ele>276.9</ele></trkpt>
      <trkpt lat="44.2419958" lon="5.0648770"><ele>275.8</ele></trkpt>
      <trkpt lat="44.2421184" lon="5.0649150"><ele>274.7</ele></trkpt>
      <trkpt lat="44.2422405" lon="5.0649559"><ele>273.6</ele></trkpt>
      <trkpt lat="44.2423621" lon="5.0649998"><ele>272.5</ele></trkpt>
      <trkpt lat="44.2424831" lon="5.0650466"><ele>271.5</ele></trkpt>
      <trkpt lat="44.2426035" lon="5.0650964"><ele>270.4</ele></trkpt>
      <trkpt lat="44.2427232" lon="5.0651491"><ele>269.4</ele></trkpt>
      <trkpt lat="44.2428423" lon="5.0652047"><ele>268.5</ele></trkpt>
      <trkpt lat="44.2429607" lon="5.0652632"><ele>267.5</ele></trkpt>
      <trkpt lat="44.2430783" lon="5.0653246"><ele>266.6</ele></trkpt>
      <trkpt lat="44.2431951" lon="5.0653888"><ele>265.7</ele></trkpt>
      <trkpt lat="44.2433111" lon="5.0654559"><ele>264.8</ele></trkpt>
      <trkpt lat="44.2434263" lon="5.0655258"><ele>264.0</ele></trkpt>
      <trkpt lat="44.2435406" lon="5.0655985"><ele>263.2</ele></trkpt>
      <trkpt lat="44.2436539" lon="5.0656739"><ele>262.4</ele></trkpt>
      <trkpt lat="44.2437663" lon="5.0657521"><ele>261.7</ele></trkpt>
      <trkpt lat="44.2438776" lon="5.0658331"><ele>261.0</ele></trkpt>
      <trkpt lat="44.2439880" lon="5.0659167"><ele>260.3</ele></trkpt>
      <trkpt lat="44.2440973" lon="5.0660030"><ele>259.7</ele></trkpt>
      <trkpt lat="44.2442055" lon="5.0660920"><ele>259.1</ele></trkpt>
      <trkpt lat="44.2443125" lon="5.0661835"><ele>258.5</ele></trkpt>
      <trkpt lat="44.2444184" lon="5.0662777"><ele>258.0</ele></trkpt>
      <trkpt lat="44.2445231" lon="5.0663745"><ele>257.5</ele></trkpt>
      <trkpt lat="44.2446266" lon="5.0664737"><ele>257.1</ele></trkpt>
      <trkpt lat="44.2447289" lon="5.0665755"><ele>256.7</ele></trkpt>
      <trkpt lat="44.2448298" lon="5.0666798"><ele>256.4</ele></trkpt>
      <trkpt lat="44.2449294" lon="5.0667865"><ele>256.0</ele></trkpt>
      <trkpt lat="44.2450277" lon="5.0668956"><ele>255.8</ele></trkpt>
      <trkpt lat="44.2451246" lon="5.0670071"><ele>255.5</ele></trkpt>
      <trkpt lat="44.2452201" lon="5.0671209"><ele>255.3</ele></trkpt>
      <trkpt lat="44.2453141" lon="5.0672370"><ele>255.2</ele></trkpt>
      <trkpt lat="44.2454067" lon="5.0673554"><ele>255.1</ele></trkpt>
      <trkpt lat="44.2454978" lon="5.0674761"><ele>255.0</ele></trkpt>
      <trkpt lat="44.2455873" lon="5.0675989"><ele>255.0</ele></trkpt>
      <trkpt lat="44.2456753" lon="5.0677240"><ele>255.0</ele></trkpt>
      <trkpt lat="44.2457618" lon="5.0678511"><ele>255.1</ele></trkpt>
      <trkpt lat="44.2458466" lon="5.0679803"><ele>255.2</ele></trkpt>
      <trkpt lat="44.2459298" lon="5.0681116"><ele>255.3</ele></trkpt>
      <trkpt lat="44.2460114" lon="5.0682449"><ele>255.5</ele></trkpt>
      <trkpt lat="44.2460912" lon="5.0683801"><ele>255.8</ele></trkpt>
      <trkpt lat="44.2461694" lon="5.0685173"><ele>256.0</ele></trkpt>
      <trkpt lat="44.2462458" lon="5.0686563"><ele>256.4</ele></trkpt>
      <trkpt lat="44.2463205" lon="5.0687972"><ele>256.7</ele></trkpt>
      <trkpt lat="44.2463934" lon="5.0689399"><ele>257.1</ele></trkpt>
      <trkpt lat="44.2464646" lon="5.0690844"><ele>257.5</ele></trkpt>
      <trkpt lat="44.2465339" lon="5.0692305"><ele>258.0</ele></trkpt>
      <trkpt lat="44.2466013" lon="5.0693783"><ele>258.5</ele></trkpt>
      <trkpt lat="44.2466669" lon="5.0695278"><ele>259.1</ele></trkpt>
      <trkpt lat="44.2467307" lon="5.0696788"><ele>259.7</ele></trkpt>
      <trkpt lat="44.2467925" lon="5.0698313"><ele>260.3</ele></trkpt>
      <trkpt lat="44.2468524" lon="5.0699854"><ele>261.0</ele></trkpt>
      <trkpt lat="44.2469104" lon="5.0701408"><ele>261.7</ele></trkpt>
      <trkpt lat="44.2469664" lon="5.0702977"><ele>262.4</ele></trkpt>
      <trkpt lat="44.2470205" lon="5.0704559"><ele>263.2</ele></trkpt>
      <trkpt lat="44.2470726" lon="5.0706154"><ele>264.0</ele></trkpt>
      <trkpt lat="44.2471226" lon="5.0707761"><ele>264.8</ele></trkpt>
      <trkpt lat="44.2471707" lon="5.0709380"><ele>265.7</ele></trkpt>
      <trkpt lat="44.2472167" lon="5.0711011"><ele>266.6</ele></trkpt>
      <trkpt lat="44.2472607" lon="5.0712653"><ele>267.5</ele></trkpt>
      <trkpt lat="44.2473026" lon="5.0714305"><ele>268.5</ele></trkpt>
      <trkpt lat="44.2473424" lon="5.0715967"><ele>269.4</ele></trkpt>
      <trkpt lat="44.2473802" lon="5.0717639"><ele>270.4</ele></trkpt>
      <trkpt lat="44.2474159" lon="5.0719319"><ele>271.5</ele></trkpt>
      <trkpt lat="44.2474494" lon="5.0721008"><ele>272.5</ele></trkpt>
      <trkpt lat="44.2474809" lon="5.0722705"><ele>273.6</ele></trkpt>
      <trkpt lat="44.2475102" lon="5.0724409"><ele>274.7</ele></trkpt>
      <trkpt lat="44.2475373" lon="5.0726121"><ele>275.8</ele></trkpt>
      <trkpt lat="44.2475624" lon="5.0727838"><ele>276.9</ele></trkpt>
      <trkpt lat="44.2475853" lon="5.0729562"><ele>278.0</ele></trkpt>
      <trkpt lat="44.2476060" lon="5.0731290"><ele>279.2</ele></trkpt>
      <trkpt lat="44.2476245" lon="5.0733024"><ele>280.4</ele></trkpt>
      <trkpt lat="44.2476409" lon="5.0734761"><ele>281.5</ele></trkpt>
      <trkpt lat="44.2476552" lon="5.0736503"><ele>282.7</ele></trkpt>
      <trkpt lat="44.2476672" lon="5.0738247"><ele>283.9</ele></trkpt>
      <trkpt lat="44.2476770" lon="5.0739995"><ele>285.1</ele></trkpt>
      <trkpt lat="44.2476847" lon="5.0741744"><ele>286.3</ele></trkpt>
      <trkpt lat="44.2476902" lon="5.0743495"><ele>287.6</ele></trkpt>
      <trkpt lat="44.2476935" lon="5.0745247"><ele>288.8</ele></trkpt>
      <trkpt lat="44.2476946" lon="5.0747000"><ele>290.0</ele></trkpt>
    </trkseg>
  </trk>
</gpx>
